COSMOS 2242             
1 22626U 93024A   26067.49926346  .00002989  00000+0  26012-3 0  9991
2 22626  82.5154 267.8553 0015253 313.1660  46.8286 14.96543534780213
SL-16 R/B               
1 22803U 93059B   26067.27702177 -.00000156  00000+0 -53527-4 0  9994
2 22803  70.9926  14.1044 0018603 218.5744 141.4051 14.17231844679332
ARIANE 40 R/B           
1 22830U 93061H   26067.16230288  .00000284  00000+0  12003-3 0  9997
2 22830  98.4918 136.0801 0009562 290.2131  69.8024 14.32860212693887
COSMOS 2278             
1 23087U 94023A   26067.53685847  .00000176  00000+0  11651-3 0  9995
2 23087  71.0551 177.5088 0007940  15.5766 344.5599 14.14378564644643
SL-16 R/B               
1 23088U 94023B   26067.44245300 -.00000219  00000+0 -88597-4 0  9996
2 23088  70.9986  73.5067 0005717 286.8109  73.2387 14.15012385645919
SL-16 R/B               
1 23343U 94074B   26067.52804645  .00000693  00000+0  99535-4 0  9996
2 23343  97.7111  98.3928 0005689 214.8115 311.2816 14.79406862687079
SL-16 R/B               
1 23405U 94077B   26067.49523020 -.00000099  00000+0 -26228-4 0  9990
2 23405  70.9853 355.0017 0003162 213.7146 146.3776 14.15561136616061
ARIANE 40+ R/B          
1 23561U 95021B   26067.21911623  .00000433  00000+0  15197-3 0  9995
2 23561  98.4500 138.7217 0007585 140.3529 284.4081 14.39771563619035
SL-16 R/B               
1 23705U 95058B   26067.50217249  .00000275  00000+0  16501-3 0  9994
2 23705  71.0218 182.7478 0010848 127.9886 232.2219 14.15494482567682
SL-16 R/B               
1 24298U 96051B   26067.53711354  .00000130  00000+0  96971-4 0  9995
2 24298  70.7603 177.6781 0015182 149.7210 210.4790 14.12415423521488
ORBVIEW 2 (SEASTAR)     
1 24883U 97037A   26067.44206271  .00000465  00000+0  17798-3 0  9997
2 24883  98.8565 231.7208 0003115  74.5185 285.6343 14.35494256508299
SL-16 R/B               
1 25400U 98043G   26067.46865896  .00000113  00000+0  66105-4 0  9994
2 25400  98.8251  20.8234 0010283  23.8724 336.2930 14.26049505438811
