CCSDS_OMM_VERS = 2.0
CREATION_DATE  = 
ORIGINATOR     = 

OBJECT_NAME    = COSMOS 2242
OBJECT_ID      = 1993-024A
CENTER_NAME    = EARTH
REF_FRAME      = TEME
TIME_SYSTEM    = UTC
MEAN_ELEMENT_THEORY = SGP/SGP4

EPOCH          = 2026-03-08T11:58:56.362944
MEAN_MOTION    = 14.96543534
ECCENTRICITY   = .0015253
INCLINATION    = 82.5154
RA_OF_ASC_NODE = 267.8553
ARG_OF_PERICENTER = 313.1660
MEAN_ANOMALY   = 46.8286

EPHEMERIS_TYPE = 0
CLASSIFICATION_TYPE = U
NORAD_CAT_ID   = 22626
ELEMENT_SET_NO = 999
REV_AT_EPOCH   = 78021
BSTAR          = .26012E-3
MEAN_MOTION_DOT = .2989E-4
MEAN_MOTION_DDOT = 0

CCSDS_OMM_VERS = 2.0
CREATION_DATE  = 
ORIGINATOR     = 

OBJECT_NAME    = SL-16 R/B
OBJECT_ID      = 1993-059B
CENTER_NAME    = EARTH
REF_FRAME      = TEME
TIME_SYSTEM    = UTC
MEAN_ELEMENT_THEORY = SGP/SGP4

EPOCH          = 2026-03-08T06:38:54.680928
MEAN_MOTION    = 14.17231844
ECCENTRICITY   = .0018603
INCLINATION    = 70.9926
RA_OF_ASC_NODE = 14.1044
ARG_OF_PERICENTER = 218.5744
MEAN_ANOMALY   = 141.4051

EPHEMERIS_TYPE = 0
CLASSIFICATION_TYPE = U
NORAD_CAT_ID   = 22803
ELEMENT_SET_NO = 999
REV_AT_EPOCH   = 67933
BSTAR          = -.53527E-4
MEAN_MOTION_DOT = -.156E-5
MEAN_MOTION_DDOT = 0

CCSDS_OMM_VERS = 2.0
CREATION_DATE  = 
ORIGINATOR     = 

OBJECT_NAME    = ARIANE 40 R/B
OBJECT_ID      = 1993-061H
CENTER_NAME    = EARTH
REF_FRAME      = TEME
TIME_SYSTEM    = UTC
MEAN_ELEMENT_THEORY = SGP/SGP4

EPOCH          = 2026-03-08T03:53:42.968832
MEAN_MOTION    = 14.32860212
ECCENTRICITY   = .0009562
INCLINATION    = 98.4918
RA_OF_ASC_NODE = 136.0801
ARG_OF_PERICENTER = 290.2131
MEAN_ANOMALY   = 69.8024

EPHEMERIS_TYPE = 0
CLASSIFICATION_TYPE = U
NORAD_CAT_ID   = 22830
ELEMENT_SET_NO = 999
REV_AT_EPOCH   = 69388
BSTAR          = .12003E-3
MEAN_MOTION_DOT = .284E-5
MEAN_MOTION_DDOT = 0

CCSDS_OMM_VERS = 2.0
CREATION_DATE  = 
ORIGINATOR     = 

OBJECT_NAME    = COSMOS 2278
OBJECT_ID      = 1994-023A
CENTER_NAME    = EARTH
REF_FRAME      = TEME
TIME_SYSTEM    = UTC
MEAN_ELEMENT_THEORY = SGP/SGP4

EPOCH          = 2026-03-08T12:53:04.571808
MEAN_MOTION    = 14.14378564
ECCENTRICITY   = .000794
INCLINATION    = 71.0551
RA_OF_ASC_NODE = 177.5088
ARG_OF_PERICENTER = 15.5766
MEAN_ANOMALY   = 344.5599

EPHEMERIS_TYPE = 0
CLASSIFICATION_TYPE = U
NORAD_CAT_ID   = 23087
ELEMENT_SET_NO = 999
REV_AT_EPOCH   = 64464
BSTAR          = .11651E-3
MEAN_MOTION_DOT = .176E-5
MEAN_MOTION_DDOT = 0

CCSDS_OMM_VERS = 2.0
CREATION_DATE  = 
ORIGINATOR     = 

OBJECT_NAME    = SL-16 R/B
OBJECT_ID      = 1994-023B
CENTER_NAME    = EARTH
REF_FRAME      = TEME
TIME_SYSTEM    = UTC
MEAN_ELEMENT_THEORY = SGP/SGP4

EPOCH          = 2026-03-08T10:37:07.939200
MEAN_MOTION    = 14.15012385
ECCENTRICITY   = .0005717
INCLINATION    = 70.9986
RA_OF_ASC_NODE = 73.5067
ARG_OF_PERICENTER = 286.8109
MEAN_ANOMALY   = 73.2387

EPHEMERIS_TYPE = 0
CLASSIFICATION_TYPE = U
NORAD_CAT_ID   = 23088
ELEMENT_SET_NO = 999
REV_AT_EPOCH   = 64591
BSTAR          = -.88597E-4
MEAN_MOTION_DOT = -.219E-5
MEAN_MOTION_DDOT = 0

CCSDS_OMM_VERS = 2.0
CREATION_DATE  = 
ORIGINATOR     = 

OBJECT_NAME    = SL-16 R/B
OBJECT_ID      = 1994-074B
CENTER_NAME    = EARTH
REF_FRAME      = TEME
TIME_SYSTEM    = UTC
MEAN_ELEMENT_THEORY = SGP/SGP4

EPOCH          = 2026-03-08T12:40:23.213280
MEAN_MOTION    = 14.79406862
ECCENTRICITY   = .0005689
INCLINATION    = 97.7111
RA_OF_ASC_NODE = 98.3928
ARG_OF_PERICENTER = 214.8115
MEAN_ANOMALY   = 311.2816

EPHEMERIS_TYPE = 0
CLASSIFICATION_TYPE = U
NORAD_CAT_ID   = 23343
ELEMENT_SET_NO = 999
REV_AT_EPOCH   = 68707
BSTAR          = .99535E-4
MEAN_MOTION_DOT = .693E-5
MEAN_MOTION_DDOT = 0

CCSDS_OMM_VERS = 2.0
CREATION_DATE  = 
ORIGINATOR     = 

OBJECT_NAME    = SL-16 R/B
OBJECT_ID      = 1994-077B
CENTER_NAME    = EARTH
REF_FRAME      = TEME
TIME_SYSTEM    = UTC
MEAN_ELEMENT_THEORY = SGP/SGP4

EPOCH          = 2026-03-08T11:53:07.889280
MEAN_MOTION    = 14.15561136
ECCENTRICITY   = .0003162
INCLINATION    = 70.9853
RA_OF_ASC_NODE = 355.0017
ARG_OF_PERICENTER = 213.7146
MEAN_ANOMALY   = 146.3776

EPHEMERIS_TYPE = 0
CLASSIFICATION_TYPE = U
NORAD_CAT_ID   = 23405
ELEMENT_SET_NO = 999
REV_AT_EPOCH   = 61606
BSTAR          = -.26228E-4
MEAN_MOTION_DOT = -.99E-6
MEAN_MOTION_DDOT = 0

CCSDS_OMM_VERS = 2.0
CREATION_DATE  = 
ORIGINATOR     = 

OBJECT_NAME    = ARIANE 40+ R/B
OBJECT_ID      = 1995-021B
CENTER_NAME    = EARTH
REF_FRAME      = TEME
TIME_SYSTEM    = UTC
MEAN_ELEMENT_THEORY = SGP/SGP4

EPOCH          = 2026-03-08T05:15:31.642272
MEAN_MOTION    = 14.39771563
ECCENTRICITY   = .0007585
INCLINATION    = 98.4500
RA_OF_ASC_NODE = 138.7217
ARG_OF_PERICENTER = 140.3529
MEAN_ANOMALY   = 284.4081

EPHEMERIS_TYPE = 0
CLASSIFICATION_TYPE = U
NORAD_CAT_ID   = 23561
ELEMENT_SET_NO = 999
REV_AT_EPOCH   = 61903
BSTAR          = .15197E-3
MEAN_MOTION_DOT = .433E-5
MEAN_MOTION_DDOT = 0

CCSDS_OMM_VERS = 2.0
CREATION_DATE  = 
ORIGINATOR     = 

OBJECT_NAME    = SL-16 R/B
OBJECT_ID      = 1995-058B
CENTER_NAME    = EARTH
REF_FRAME      = TEME
TIME_SYSTEM    = UTC
MEAN_ELEMENT_THEORY = SGP/SGP4

EPOCH          = 2026-03-08T12:03:07.703136
MEAN_MOTION    = 14.15494482
ECCENTRICITY   = .0010848
INCLINATION    = 71.0218
RA_OF_ASC_NODE = 182.7478
ARG_OF_PERICENTER = 127.9886
MEAN_ANOMALY   = 232.2219

EPHEMERIS_TYPE = 0
CLASSIFICATION_TYPE = U
NORAD_CAT_ID   = 23705
ELEMENT_SET_NO = 999
REV_AT_EPOCH   = 56768
BSTAR          = .16501E-3
MEAN_MOTION_DOT = .275E-5
MEAN_MOTION_DDOT = 0

CCSDS_OMM_VERS = 2.0
CREATION_DATE  = 
ORIGINATOR     = 

OBJECT_NAME    = SL-16 R/B
OBJECT_ID      = 1996-051B
CENTER_NAME    = EARTH
REF_FRAME      = TEME
TIME_SYSTEM    = UTC
MEAN_ELEMENT_THEORY = SGP/SGP4

EPOCH          = 2026-03-08T12:53:26.609856
MEAN_MOTION    = 14.12415423
ECCENTRICITY   = .0015182
INCLINATION    = 70.7603
RA_OF_ASC_NODE = 177.6781
ARG_OF_PERICENTER = 149.7210
MEAN_ANOMALY   = 210.4790

EPHEMERIS_TYPE = 0
CLASSIFICATION_TYPE = U
NORAD_CAT_ID   = 24298
ELEMENT_SET_NO = 999
REV_AT_EPOCH   = 52148
BSTAR          = .96971E-4
MEAN_MOTION_DOT = .13E-5
MEAN_MOTION_DDOT = 0

CCSDS_OMM_VERS = 2.0
CREATION_DATE  = 
ORIGINATOR     = 

OBJECT_NAME    = ORBVIEW 2 (SEASTAR)
OBJECT_ID      = 1997-037A
CENTER_NAME    = EARTH
REF_FRAME      = TEME
TIME_SYSTEM    = UTC
MEAN_ELEMENT_THEORY = SGP/SGP4

EPOCH          = 2026-03-08T10:36:34.218144
MEAN_MOTION    = 14.35494256
ECCENTRICITY   = .0003115
INCLINATION    = 98.8565
RA_OF_ASC_NODE = 231.7208
ARG_OF_PERICENTER = 74.5185
MEAN_ANOMALY   = 285.6343

EPHEMERIS_TYPE = 0
CLASSIFICATION_TYPE = U
NORAD_CAT_ID   = 24883
ELEMENT_SET_NO = 999
REV_AT_EPOCH   = 50829
BSTAR          = .17798E-3
MEAN_MOTION_DOT = .465E-5
MEAN_MOTION_DDOT = 0

CCSDS_OMM_VERS = 2.0
CREATION_DATE  = 
ORIGINATOR     = 

OBJECT_NAME    = SL-16 R/B
OBJECT_ID      = 1998-043G
CENTER_NAME    = EARTH
REF_FRAME      = TEME
TIME_SYSTEM    = UTC
MEAN_ELEMENT_THEORY = SGP/SGP4

EPOCH          = 2026-03-08T11:14:52.134144
MEAN_MOTION    = 14.26049505
ECCENTRICITY   = .0010283
INCLINATION    = 98.8251
RA_OF_ASC_NODE = 20.8234
ARG_OF_PERICENTER = 23.8724
MEAN_ANOMALY   = 336.2930

EPHEMERIS_TYPE = 0
CLASSIFICATION_TYPE = U
NORAD_CAT_ID   = 25400
ELEMENT_SET_NO = 999
REV_AT_EPOCH   = 43881
BSTAR          = .66105E-4
MEAN_MOTION_DOT = .113E-5
MEAN_MOTION_DDOT = 0

